[{"OBJECT_NAME":"STARLINK-4521","OBJECT_ID":"2022-097D","EPOCH":"2026-03-09T10:44:18.339936","MEAN_MOTION":15.08836625,"ECCENTRICITY":0.00014815,"INCLINATION":53.2173,"RA_OF_ASC_NODE":125.2078,"ARG_OF_PERICENTER":98.0756,"MEAN_ANOMALY":262.0405,"EPHEMERIS_TYPE":0,"CLASSIFICATION_TYPE":"U","NORAD_CAT_ID":53391,"ELEMENT_SET_NO":999,"REV_AT_EPOCH":19863,"BSTAR":-2.4584613e-5,"MEAN_MOTION_DOT":-6.79e-6,"MEAN_MOTION_DDOT":0},{"OBJECT_NAME":"UNKNOWN","OBJECT_ID":"","EPOCH":"2026-03-09T06:54:16.920576","MEAN_MOTION":14.16736547,"ECCENTRICITY":0.0425292,"INCLINATION":65.6395,"RA_OF_ASC_NODE":176.1827,"ARG_OF_PERICENTER":77.7512,"MEAN_ANOMALY":316.077,"EPHEMERIS_TYPE":0,"CLASSIFICATION_TYPE":"U","NORAD_CAT_ID":87245,"ELEMENT_SET_NO":999,"REV_AT_EPOCH":62646,"BSTAR":0.00096148,"MEAN_MOTION_DOT":4.608e-5,"MEAN_MOTION_DDOT":0}]
